SAOCOM 1A               
1 43641U 18076A   26078.27950426  .00000510  00000+0  70668-4 0  9994
2 43641  97.8891 266.3166 0001485  89.4351 270.7033 14.82150742402787
H-2A R/B                
1 43682U 18084L   26078.14476322  .00017053  00000+0  40153-3 0  9997
2 43682  98.8717 297.5568 0024640 352.8336   7.2550 15.41735802407234
SAOCOM 1B               
1 46265U 20059A   26078.24320260 -.00000355  00000+0 -38061-4 0  9997
2 46265  97.8892 265.3787 0001470  87.9185 272.2196 14.82144105300165
CSS (TIANHE)            
1 48274U 21035A   26078.24873617  .00019024  00000+0  22196-3 0  9995
2 48274  41.4668 149.9763 0005883 332.6620  27.3909 15.61165238279108
COSMOS 2550             
1 48865U 21056A   26078.29846318 -.00000193  00000+0 -35695-7 0  9998
2 48865  67.1452  11.8160 0008090 270.1459  89.8768 15.33849578264933
CZ-2C R/B               
1 52794U 22058K   26077.83263475  .00028615  00000+0  40983-3 0  9992
2 52794  50.1877 271.2345 0041872 239.8584 119.8235 15.54873206211556
CZ-2C R/B               
1 54039U 22132E   26077.97939478  .00038816  00000+0  42932-3 0  9997
2 54039  97.2955  81.5839 0019668  61.8989 298.4254 15.62685246191825
GSLV R/B                
1 54149U 22138AN  26078.28094530  .00002015  00000+0  17246-3 0  9993
2 54149  87.3871 163.1520 0023941 114.7039 245.6689 14.96836681185366
XRISM                   
1 57800U 23137A   26077.81944874  .00004570  00000+0  25691-3 0  9994
2 57800  31.0010 224.6051 0007923 130.8278 229.3048 15.11599686139177
ACS3                    
1 59588U 24077B   26078.28894809  .00020162  00000+0  16027-1 0  9993
2 59588  97.2021  17.2439 0068125  54.1752 306.5717 13.90033445 95533
SZ-21 MODULE            
1 66515U 25246C   26077.53946753  .00028586  00000+0  24029-3 0  9994
2 66515  41.4738 148.8547 0000477 292.1706  67.9085 15.69230343 19465
